[{"OBJECT_NAME":"STARLINK-3665","OBJECT_ID":"2022-029L","EPOCH":"2026-03-09T11:18:04.499424","MEAN_MOTION":15.08837687,"ECCENTRICITY":0.00013938,"INCLINATION":53.2164,"RA_OF_ASC_NODE":90.1019,"ARG_OF_PERICENTER":105.5649,"MEAN_ANOMALY":254.5497,"EPHEMERIS_TYPE":0,"CLASSIFICATION_TYPE":"U","NORAD_CAT_ID":52098,"ELEMENT_SET_NO":999,"REV_AT_EPOCH":22062,"BSTAR":-3.2334748e-5,"MEAN_MOTION_DOT":-8.02e-6,"MEAN_MOTION_DDOT":0},{"OBJECT_NAME":"PSLV DEB","OBJECT_ID":"2001-049AH","EPOCH":"2026-03-09T23:39:21.767904","MEAN_MOTION":14.98984537,"ECCENTRICITY":0.00513683,"INCLINATION":98.1237,"RA_OF_ASC_NODE":87.2704,"ARG_OF_PERICENTER":48.4953,"MEAN_ANOMALY":9.0267,"EPHEMERIS_TYPE":0,"CLASSIFICATION_TYPE":"U","NORAD_CAT_ID":27089,"ELEMENT_SET_NO":999,"REV_AT_EPOCH":31452,"BSTAR":0.000212521,"MEAN_MOTION_DOT":2.577e-5,"MEAN_MOTION_DDOT":0}]
